[{"OBJECT_NAME":"TIANMU-1 21","OBJECT_ID":"2023-208C","EPOCH":"2026-03-09T21:48:13.065120","MEAN_MOTION":15.33041299,"ECCENTRICITY":0.00059807,"INCLINATION":97.4378,"RA_OF_ASC_NODE":187.7048,"ARG_OF_PERICENTER":317.2488,"MEAN_ANOMALY":42.8288,"EPHEMERIS_TYPE":0,"CLASSIFICATION_TYPE":"U","NORAD_CAT_ID":58662,"ELEMENT_SET_NO":999,"REV_AT_EPOCH":12234,"BSTAR":0.00040063782,"MEAN_MOTION_DOT":0.00012722,"MEAN_MOTION_DDOT":0},{"OBJECT_NAME":"STARLINK-35423","OBJECT_ID":"2025-223V","EPOCH":"2026-03-09T21:53:17.655360","MEAN_MOTION":15.3021659,"ECCENTRICITY":0.00011312,"INCLINATION":53.1578,"RA_OF_ASC_NODE":292.8619,"ARG_OF_PERICENTER":56.2826,"MEAN_ANOMALY":303.8282,"EPHEMERIS_TYPE":0,"CLASSIFICATION_TYPE":"U","NORAD_CAT_ID":65873,"ELEMENT_SET_NO":999,"REV_AT_EPOCH":2424,"BSTAR":0.0011933441,"MEAN_MOTION_DOT":0.0003517,"MEAN_MOTION_DDOT":0}]
